ONEWEB-0415             
1 51624U 22012C   25196.73126136  .00000700  00000+0  19688-2 0  9997
2 51624  87.8818 103.3747 0002060  67.8253 292.3093 13.10372356165229
ONEWEB-0416             
1 51625U 22012D   25196.74288062  .00000330  00000+0  90966-3 0  9994
2 51625  87.8820 103.3903 0001884  75.3828 284.7508 13.10370468165264
ONEWEB-0422             
1 51626U 22012E   25196.67829957  .00000024  00000+0  28482-4 0  9996
2 51626  87.9052  72.8319 0002561  86.5704 273.5720 13.17648913169495
ONEWEB-0423             
1 51627U 22012F   25196.89935664  .00000037  00000+0  61059-4 0  9995
2 51627  87.9055  72.7959 0001868  83.1211 277.0133 13.17649099169418
ONEWEB-0425             
1 51628U 22012G   25196.75283059 -.00000119  00000+0 -37655-3 0  9992
2 51628  87.8817 103.3584 0001630  83.4876 276.6437 13.10369816165266
ONEWEB-0428             
1 51629U 22012H   25196.73292670  .00000632  00000+0  17734-2 0  9993
2 51629  87.8820 103.3839 0002139  77.0302 283.1065 13.10372532165227
ONEWEB-0431             
1 51630U 22012J   25196.77924972 -.00000439  00000+0 -12926-2 0  9991
2 51630  87.8818 103.3453 0002426  68.1010 292.0376 13.10374996165280
ONEWEB-0434             
1 51631U 22012K   25196.75614577 -.00000303  00000+0 -90348-3 0  9992
2 51631  87.8819 103.3919 0001436  93.4176 266.7115 13.10370035165260
